[{"OBJECT_NAME":"SENTINEL-3B","OBJECT_ID":"2018-039A","EPOCH":"2026-03-09T22:56:26.429280","MEAN_MOTION":14.26736439,"ECCENTRICITY":9.653e-5,"INCLINATION":98.6227,"RA_OF_ASC_NODE":137.8858,"ARG_OF_PERICENTER":127.5232,"MEAN_ANOMALY":232.6036,"EPHEMERIS_TYPE":0,"CLASSIFICATION_TYPE":"U","NORAD_CAT_ID":43437,"ELEMENT_SET_NO":999,"REV_AT_EPOCH":40997,"BSTAR":7.6183716e-5,"MEAN_MOTION_DOT":1.41e-6,"MEAN_MOTION_DDOT":0},{"OBJECT_NAME":"CZ-6A DEB","OBJECT_ID":"2024-140ABJ","EPOCH":"2026-03-09T13:37:25.917312","MEAN_MOTION":14.16565938,"ECCENTRICITY":0.00746345,"INCLINATION":88.978,"RA_OF_ASC_NODE":285.2453,"ARG_OF_PERICENTER":168.5085,"MEAN_ANOMALY":191.783,"EPHEMERIS_TYPE":0,"CLASSIFICATION_TYPE":"U","NORAD_CAT_ID":61500,"ELEMENT_SET_NO":999,"REV_AT_EPOCH":7980,"BSTAR":0.0014347172,"MEAN_MOTION_DOT":2.951e-5,"MEAN_MOTION_DDOT":0}]
